{"type": "FeatureCollection", "features": [ {"type": "Feature", "properties": {"norad_id": 41556, "name": "ZIYUAN 3-02 (ZY 3-02)", "group": "resource", "lat": 56.770355001567516, "lon": 63.291775538072756, "alt_km": 502.3918562650342, "timestamp": "2025-12-26T19:22:38.551451+00:00", "meta": {"OBJECT_NAME": "ZIYUAN 3-02 (ZY 3-02)", "OBJECT_ID": "2016-033A", "EPOCH": "2025-12-26T14:23:20.156640", "MEAN_MOTION": 15.2125258, "ECCENTRICITY": 0.0011559, "INCLINATION": 97.4023, "RA_OF_ASC_NODE": 74.5338, "ARG_OF_PERICENTER": 194.5449, "MEAN_ANOMALY": 165.5456, "EPHEMERIS_TYPE": 0, "CLASSIFICATION_TYPE": "U", "NORAD_CAT_ID": 41556, "ELEMENT_SET_NO": 999, "REV_AT_EPOCH": 53174, "BSTAR": 0.00033088234, "MEAN_MOTION_DOT": 7.337e-05, "MEAN_MOTION_DDOT": 0}, "tle": {"line1": "1 41556U 16033A   25360.59953885  .00007337  00000+0  33088-3 0  9996", "line2": "2 41556  97.4023  74.5338 0011559 194.5449 165.5456 15.21252580531748"}}, "geometry": {"type": "Point", "coordinates": [63.291775538072756, 56.770355001567516]}}, {"type": "Feature", "properties": {"norad_id": 41599, "name": "CARTOSAT-2C", "group": "resource", "lat": -75.86744452317585, "lon": -153.51706289323715, "alt_km": 519.1287670258234, "timestamp": "2025-12-26T19:22:38.551461+00:00", "meta": {"OBJECT_NAME": "CARTOSAT-2C", "OBJECT_ID": "2016-040A", "EPOCH": "2025-12-26T15:05:00.747168", "MEAN_MOTION": 15.19250913, "ECCENTRICITY": 0.0010658, "INCLINATION": 97.4744, "RA_OF_ASC_NODE": 57.7342, "ARG_OF_PERICENTER": 18.8243, "MEAN_ANOMALY": 341.3383, "EPHEMERIS_TYPE": 0, "CLASSIFICATION_TYPE": "U", "NORAD_CAT_ID": 41599, "ELEMENT_SET_NO": 999, "REV_AT_EPOCH": 52751, "BSTAR": 0.00044498743, "MEAN_MOTION_DOT": 9.328e-05, "MEAN_MOTION_DDOT": 0}, "tle": {"line1": "1 41599U 16040A   25360.62848087  .00009328  00000+0  44499-3 0  9992", "line2": "2 41599  97.4744  57.7342 0010658  18.8243 341.3383 15.19250913527510"}}, "geometry": {"type": "Point", "coordinates": [-153.51706289323715, -75.86744452317585]}}, {"type": "Feature", "properties": {"norad_id": 41601, "name": "SKYSAT-C1", "group": "resource", "lat": -81.19727222956125, "lon": 89.33167674241488, "alt_km": 474.2543079796169, "timestamp": "2025-12-26T19:22:38.551471+00:00", "meta": {"OBJECT_NAME": "SKYSAT-C1", "OBJECT_ID": "2016-040C", "EPOCH": "2025-12-26T13:28:44.972832", "MEAN_MOTION": 15.32839609, "ECCENTRICITY": 7.932e-05, "INCLINATION": 96.9809, "RA_OF_ASC_NODE": 36.796, "ARG_OF_PERICENTER": 309.1958, "MEAN_ANOMALY": 50.9214, "EPHEMERIS_TYPE": 0, "CLASSIFICATION_TYPE": "U", "NORAD_CAT_ID": 41601, "ELEMENT_SET_NO": 999, "REV_AT_EPOCH": 53139, "BSTAR": 0.00029988678, "MEAN_MOTION_DOT": 9.441e-05, "MEAN_MOTION_DDOT": 0}, "tle": {"line1": "1 41601U 16040C   25360.56163163  .00009441  00000+0  29989-3 0  9997", "line2": "2 41601  96.9809  36.7960 0000793 309.1958  50.9214 15.32839609531398"}}, "geometry": {"type": "Point", "coordinates": [89.33167674241488, -81.19727222956125]}}, {"type": "Feature", "properties": {"norad_id": 41603, "name": "LAPAN-A3", "group": "resource", "lat": 3.3190154158897305, "lon": -2.5639067721565785, "alt_km": 473.3228573232982, "timestamp": "2025-12-26T19:22:38.551482+00:00", "meta": {"OBJECT_NAME": "LAPAN-A3", "OBJECT_ID": "2016-040E", "EPOCH": "2025-12-26T14:39:32.393376", "MEAN_MOTION": 15.31666512, "ECCENTRICITY": 0.00086379, "INCLINATION": 97.1437, "RA_OF_ASC_NODE": 357.6633, "ARG_OF_PERICENTER": 275.8769, "MEAN_ANOMALY": 84.1488, "EPHEMERIS_TYPE": 0, "CLASSIFICATION_TYPE": "U", "NORAD_CAT_ID": 41603, "ELEMENT_SET_NO": 999, "REV_AT_EPOCH": 52838, "BSTAR": 0.00015289322, "MEAN_MOTION_DOT": 4.605e-05, "MEAN_MOTION_DDOT": 0}, "tle": {"line1": "1 41603U 16040E   25360.61079159  .00004605  00000+0  15289-3 0  9991", "line2": "2 41603  97.1437 357.6633 0008637 275.8769  84.1488 15.31666512528383"}}, "geometry": {"type": "Point", "coordinates": [-2.5639067721565785, 3.3190154158897305]}}, {"type": "Feature", "properties": {"norad_id": 41604, "name": "BIROS", "group": "resource", "lat": 23.978690725127738, "lon": 29.699028374100216, "alt_km": 286.55174271064607, "timestamp": "2025-12-26T19:22:38.551493+00:00", "meta": {"OBJECT_NAME": "BIROS", "OBJECT_ID": "2016-040F", "EPOCH": "2025-12-26T14:45:38.450304", "MEAN_MOTION": 15.95497863, "ECCENTRICITY": 0.000398, "INCLINATION": 97.0651, "RA_OF_ASC_NODE": 32.6597, "ARG_OF_PERICENTER": 120.7736, "MEAN_ANOMALY": 239.3933, "EPHEMERIS_TYPE": 0, "CLASSIFICATION_TYPE": "U", "NORAD_CAT_ID": 41604, "ELEMENT_SET_NO": 999, "REV_AT_EPOCH": 53093, "BSTAR": 0.00064877469, "MEAN_MOTION_DOT": 0.00256097, "MEAN_MOTION_DDOT": 2.7500219e-05}, "tle": {"line1": "1 41604U 16040F   25360.61502836  .00256097  27500-4  64877-3 0  9995", "line2": "2 41604  97.0651  32.6597 0003980 120.7736 239.3933 15.95497863530932"}}, "geometry": {"type": "Point", "coordinates": [29.699028374100216, 23.978690725127738]}}, {"type": "Feature", "properties": {"norad_id": 41727, "name": "GAOFEN-3", "group": "resource", "lat": -57.612733817117416, "lon": 19.65628431737613, "alt_km": 758.5490945648035, "timestamp": "2025-12-26T19:22:38.551503+00:00", "meta": {"OBJECT_NAME": "GAOFEN-3", "OBJECT_ID": "2016-049A", "EPOCH": "2025-12-26T14:39:12.485952", "MEAN_MOTION": 14.42216892, "ECCENTRICITY": 0.00010804, "INCLINATION": 98.404, "RA_OF_ASC_NODE": 5.9849, "ARG_OF_PERICENTER": 54.2048, "MEAN_ANOMALY": 305.9242, "EPHEMERIS_TYPE": 0, "CLASSIFICATION_TYPE": "U", "NORAD_CAT_ID": 41727, "ELEMENT_SET_NO": 999, "REV_AT_EPOCH": 49377, "BSTAR": 3.1898517e-05, "MEAN_MOTION_DOT": 6.2e-07, "MEAN_MOTION_DDOT": 0}, "tle": {"line1": "1 41727U 16049A   25360.61056118  .00000062  00000+0  31899-4 0  9996", "line2": "2 41727  98.4040   5.9849 0001080  54.2048 305.9242 14.42216892493779"}}, "geometry": {"type": "Point", "coordinates": [19.65628431737613, -57.612733817117416]}}, {"type": "Feature", "properties": {"norad_id": 41771, "name": "SKYSAT-C4", "group": "resource", "lat": -17.353111936427197, "lon": 27.492924192348966, "alt_km": 444.6997603708651, "timestamp": "2025-12-26T19:22:38.551514+00:00", "meta": {"OBJECT_NAME": "SKYSAT-C4", "OBJECT_ID": "2016-058B", "EPOCH": "2025-12-26T13:13:33.092544", "MEAN_MOTION": 15.4264534, "ECCENTRICITY": 0.00026382, "INCLINATION": 96.9364, "RA_OF_ASC_NODE": 25.0687, "ARG_OF_PERICENTER": 121.6623, "MEAN_ANOMALY": 238.4883, "EPHEMERIS_TYPE": 0, "CLASSIFICATION_TYPE": "U", "NORAD_CAT_ID": 41771, "ELEMENT_SET_NO": 999, "REV_AT_EPOCH": 51880, "BSTAR": 0.00036601028, "MEAN_MOTION_DOT": 0.00015874, "MEAN_MOTION_DDOT": 0}, "tle": {"line1": "1 41771U 16058B   25360.55107746  .00015874  00000+0  36601-3 0  9994", "line2": "2 41771  96.9364  25.0687 0002638 121.6623 238.4883 15.42645340518809"}}, "geometry": {"type": "Point", "coordinates": [27.492924192348966, -17.353111936427197]}}, {"type": "Feature", "properties": {"norad_id": 41772, "name": "SKYSAT-C5", "group": "resource", "lat": -14.70167692147881, "lon": -137.89705806014317, "alt_km": 465.8672594861091, "timestamp": "2025-12-26T19:22:38.551524+00:00", "meta": {"OBJECT_NAME": "SKYSAT-C5", "OBJECT_ID": "2016-058C", "EPOCH": "2025-12-26T13:50:05.273088", "MEAN_MOTION": 15.34128046, "ECCENTRICITY": 0.00040626, "INCLINATION": 97.0739, "RA_OF_ASC_NODE": 43.7488, "ARG_OF_PERICENTER": 224.1066, "MEAN_ANOMALY": 135.9854, "EPHEMERIS_TYPE": 0, "CLASSIFICATION_TYPE": "U", "NORAD_CAT_ID": 41772, "ELEMENT_SET_NO": 999, "REV_AT_EPOCH": 51728, "BSTAR": 0.00030147639, "MEAN_MOTION_DOT": 9.887e-05, "MEAN_MOTION_DDOT": 0}, "tle": {"line1": "1 41772U 16058C   25360.57644992  .00009887  00000+0  30148-3 0  9993", "line2": "2 41772  97.0739  43.7488 0004062 224.1066 135.9854 15.34128046517287"}}, "geometry": {"type": "Point", "coordinates": [-137.89705806014317, -14.70167692147881]}}, {"type": "Feature", "properties": {"norad_id": 41773, "name": "SKYSAT-C2", "group": "resource", "lat": 13.418277378804774, "lon": 23.05055043810014, "alt_km": 452.84078672695523, "timestamp": "2025-12-26T19:22:38.551534+00:00", "meta": {"OBJECT_NAME": "SKYSAT-C2", "OBJECT_ID": "2016-058D", "EPOCH": "2025-12-26T14:37:58.927584", "MEAN_MOTION": 15.37583734, "ECCENTRICITY": 0.00025724, "INCLINATION": 97.0353, "RA_OF_ASC_NODE": 24.5495, "ARG_OF_PERICENTER": 351.2382, "MEAN_ANOMALY": 8.8818, "EPHEMERIS_TYPE": 0, "CLASSIFICATION_TYPE": "U", "NORAD_CAT_ID": 41773, "ELEMENT_SET_NO": 999, "REV_AT_EPOCH": 51849, "BSTAR": 0.00034081424, "MEAN_MOTION_DOT": 0.000125, "MEAN_MOTION_DDOT": 0}, "tle": {"line1": "1 41773U 16058D   25360.60970981  .00012500  00000+0  34081-3 0  9994", "line2": "2 41773  97.0353  24.5495 0002572 351.2382   8.8818 15.37583734518496"}}, "geometry": {"type": "Point", "coordinates": [23.05055043810014, 13.418277378804774]}}, {"type": "Feature", "properties": {"norad_id": 41774, "name": "SKYSAT-C3", "group": "resource", "lat": -26.968162098456414, "lon": -149.6469639159507, "alt_km": 437.8037378328372, "timestamp": "2025-12-26T19:22:38.551544+00:00", "meta": {"OBJECT_NAME": "SKYSAT-C3", "OBJECT_ID": "2016-058E", "EPOCH": "2025-12-26T13:49:13.464192", "MEAN_MOTION": 15.44895219, "ECCENTRICITY": 0.00021451, "INCLINATION": 96.9285, "RA_OF_ASC_NODE": 33.6796, "ARG_OF_PERICENTER": 106.946, "MEAN_ANOMALY": 253.2026, "EPHEMERIS_TYPE": 0, "CLASSIFICATION_TYPE": "U", "NORAD_CAT_ID": 41774, "ELEMENT_SET_NO": 999, "REV_AT_EPOCH": 51939, "BSTAR": 0.00041613584, "MEAN_MOTION_DOT": 0.00019491, "MEAN_MOTION_DDOT": 0}, "tle": {"line1": "1 41774U 16058E   25360.57585028  .00019491  00000+0  41614-3 0  9991", "line2": "2 41774  96.9285  33.6796 0002145 106.9460 253.2026 15.44895219519391"}}, "geometry": {"type": "Point", "coordinates": [-149.6469639159507, -26.968162098456414]}}]}